IRIDIUM 155             
1 43573U 18061E   22261.71790073  .00000111  00000+0  32566-4 0  9993
2 43573  86.3910 268.1273 0002396  97.1185 263.0283 14.34219460217357
IRIDIUM 154             
1 43574U 18061F   22261.55934065  .00000105  00000+0  30292-4 0  9994
2 43574  86.3914 268.2615 0001958  87.1122 273.0298 14.34218803217386
IRIDIUM 163             
1 43575U 18061G   22261.81937434  .00000109  00000+0  31838-4 0  9998
2 43575  86.3911 268.1100 0002408  81.9452 278.2017 14.34219293217392
IRIDIUM 156             
1 43576U 18061H   22261.72424390  .00000107  00000+0  31216-4 0  9999
2 43576  86.3912 268.1554 0002550  89.6006 270.5482 14.34217491217372
IRIDIUM 164             
1 43577U 18061J   22261.77497061  .00000104  00000+0  30234-4 0  9996
2 43577  86.3913 268.1536 0002078  84.5886 275.5547 14.34220594217420
IRIDIUM 159             
1 43578U 18061K   22261.53396329  .00000106  00000+0  30663-4 0  9994
2 43578  86.3911 268.2200 0002054  87.0345 273.1086 14.34217843217357
IRIDIUM 180             
1 43922U 19002A   22261.88230222  .00000152  00000+0  47350-4 0  9992
2 43922  86.4024 204.9737 0001947  70.2583 289.8822 14.34215593193014
IRIDIUM 176             
1 43923U 19002B   22261.85258402  .00000683  00000+0  10438-3 0  9995
2 43923  86.6160 205.0230 0002338  86.0717 274.0768 14.72255206198070
IRIDIUM 168             
1 43924U 19002C   22261.87595616  .00000199  00000+0  63909-4 0  9993
2 43924  86.4028 205.0149 0001973  81.0044 279.1375 14.34219930192990
IRIDIUM 173             
1 43925U 19002D   22261.86327997  .00000208  00000+0  67256-4 0  9998
2 43925  86.4026 204.9651 0002057  78.9349 281.2078 14.34218529192977
IRIDIUM 169             
1 43926U 19002E   22261.85544263  .00000167  00000+0  48179-4 0  9992
2 43926  86.4216 236.5346 0005343 141.4991 218.6589 14.38609525193641
IRIDIUM 172             
1 43927U 19002F   22261.85692316  .00000064  00000+0  15941-4 0  9993
2 43927  86.4025 204.9717 0002024  76.0079 284.1342 14.34213556192986
IRIDIUM 175             
1 43928U 19002G   22261.84642440  .00000673  00000+0  10277-3 0  9998
2 43928  86.6162 204.8589 0002275  86.7161 273.4317 14.72255598198067
IRIDIUM 171             
1 43929U 19002H   22261.83790621  .00000058  00000+0  13749-4 0  9998
2 43929  86.4033 205.1336 0001957  79.9884 280.1533 14.34214682192975
IRIDIUM 170             
1 43930U 19002J   22261.85877939  .00000674  00000+0  10294-3 0  9995
2 43930  86.6159 205.0258 0002421  89.3051 270.8443 14.72257350198083
IRIDIUM 167             
1 43931U 19002K   22261.83156249  .00000155  00000+0  48330-4 0  9995
2 43931  86.4026 204.9924 0001955  74.4641 285.6770 14.34215009192976
